[{"OBJECT_NAME":"KAZEOSAT 1","OBJECT_ID":"2014-024A","EPOCH":"2026-03-09T22:32:10.650624","MEAN_MOTION":14.4203561,"ECCENTRICITY":0.0001038,"INCLINATION":98.3278,"RA_OF_ASC_NODE":143.8269,"ARG_OF_PERICENTER":83.2576,"MEAN_ANOMALY":276.8732,"EPHEMERIS_TYPE":0,"CLASSIFICATION_TYPE":"U","NORAD_CAT_ID":39731,"ELEMENT_SET_NO":999,"REV_AT_EPOCH":62425,"BSTAR":8.1032563e-5,"MEAN_MOTION_DOT":2.23e-6,"MEAN_MOTION_DDOT":0},{"OBJECT_NAME":"SL-8 R\/B","OBJECT_ID":"1992-053B","EPOCH":"2026-03-09T23:29:09.087360","MEAN_MOTION":14.34825191,"ECCENTRICITY":0.00366138,"INCLINATION":74.0459,"RA_OF_ASC_NODE":9.2729,"ARG_OF_PERICENTER":276.726,"MEAN_ANOMALY":82.9726,"EPHEMERIS_TYPE":0,"CLASSIFICATION_TYPE":"U","NORAD_CAT_ID":22081,"ELEMENT_SET_NO":999,"REV_AT_EPOCH":75523,"BSTAR":0.00012520677,"MEAN_MOTION_DOT":3.32e-6,"MEAN_MOTION_DDOT":0}]
